     2.100          NAVIGATION                              RINEX VERSION / TYPE
fic2rin                                 11/02/2015 00:06:41 PGM / RUN BY / DATE
                                                            END OF HEADER
32 15 11  1 22  0  0.0  .384682789445D-05  .117097442853D-10  .000000000000D+00
     .680000000000D+02  .690625000000D+01  .534022244170D-08 -.458039921258D+00
     .495463609695D-06  .113681517541D-01  .642612576485D-05  .515365470314D+04
     .792000000000D+05  .210478901863D-06  .259660453130D+01  .149011611938D-07
     .946982279716D+00  .248718750000D+03  .162430295931D+00 -.847999608302D-08
     .600024993449D-10  .100000000000D+01  .186900000000D+04  .000000000000D+00
     .240000000000D+01  .000000000000D+00 -.325962901115D-08  .680000000000D+02
     .720060000000D+05  .400000000000D+01
26 15 11  1 21 59 44.0 -.105966348201D-03 -.145519152284D-10  .000000000000D+00
     .000000000000D+00  .125000000000D+00  .463305012799D-08 -.228627678122D+01
     .782310962677D-07  .287636416033D-03  .349059700966D-05  .515365613365D+04
     .791840000000D+05  .726431608200D-07 -.629546943614D+00  .242143869400D-07
     .960704929674D+00  .313312500000D+03 -.263159657793D+00 -.834463330176D-08
     .285726187357D-10  .100000000000D+01  .186900000000D+04  .000000000000D+00
     .240000000000D+01  .000000000000D+00  .745058059692D-08  .000000000000D+00
     .744060000000D+05  .400000000000D+01
26 15 11  1 23 59 44.0 -.106071121991D-03 -.145519152284D-10  .000000000000D+00
     .100000000000D+01  .596875000000D+01  .457054752451D-08 -.123083739631D+01
     .407919287682D-06  .287627219222D-03  .400468707085D-05  .515365893936D+04
     .863840000000D+05 -.130385160446D-07 -.629606383439D+00  .298023223877D-07
     .960705015986D+00  .303593750000D+03 -.268407575041D+00 -.829641700764D-08
    -.410731394325D-10  .100000000000D+01  .186900000000D+04  .000000000000D+00
     .240000000000D+01  .000000000000D+00  .745058059692D-08  .100000000000D+01
     .792060000000D+05  .400000000000D+01
 1 15 11  2  0  0  0.0  .357581302524D-05  .795807864051D-12  .000000000000D+00
     .270000000000D+02 -.164062500000D+02  .439089718421D-08  .817826590926D+00
    -.925734639168D-06  .481336680241D-02  .985711812973D-05  .515366052246D+04
     .864000000000D+05 -.726431608200D-07  .147556623199D+01  .109896063805D-06
     .962713067081D+00  .191093750000D+03  .495958945127D+00 -.794033074665D-08
     .305012705003D-09  .100000000000D+01  .186900000000D+04  .000000000000D+00
     .240000000000D+01  .000000000000D+00  .512227416039D-08  .270000000000D+02
     .792060000000D+05  .400000000000D+01
 2 15 11  2  0  0  0.0  .594616867602D-03  .113686837722D-11  .000000000000D+00
     .800000000000D+02 -.401562500000D+02  .486270255108D-08  .139955608657D+01
    -.201351940632D-05  .148942209780D-01  .994093716145D-05  .515366229630D+04
     .864000000000D+05 -.318512320518D-06  .143452863397D+01  .856816768646D-07
     .941407733822D+00  .177968750000D+03 -.221880299833D+01 -.834570477496D-08
     .267511142913D-09  .100000000000D+01  .186900000000D+04  .000000000000D+00
     .240000000000D+01  .000000000000D+00 -.204890966415D-07  .800000000000D+02
     .792060000000D+05  .400000000000D+01
 3 15 11  2  0  0  0.0  .169370323420D-04 -.261479726760D-11  .000000000000D+00
     .420000000000D+02  .687500000000D+01  .492341936589D-08  .312516256066D+01
     .422820448875D-06  .445593148470D-03  .686943531036D-05  .515356392670D+04
     .864000000000D+05  .223517417908D-07  .251671076994D+01 -.372529029846D-08
     .959322507199D+00  .249500000000D+03 -.286028284914D+01 -.814819654795D-08
     .103218585183D-09  .100000000000D+01  .186900000000D+04  .000000000000D+00
     .240000000000D+01  .000000000000D+00  .186264514923D-08  .420000000000D+02
     .792060000000D+05  .400000000000D+01
 4 15 11  2  0  0  0.0 -.405018217862D-04 -.534328137292D-11  .000000000000D+00
     .870000000000D+02 -.153437500000D+02  .496842124040D-08  .628544746714D+00
    -.922009348869D-06  .120198421646D-01  .948645174503D-05  .515364203453D+04
     .864000000000D+05 -.217929482460D-06  .144960546038D+01  .111758708954D-07
     .940499612795D+00  .188156250000D+03  .111537379566D+01 -.836034824206D-08
     .221080637467D-09  .100000000000D+01  .186900000000D+04  .000000000000D+00
     .240000000000D+01  .000000000000D+00 -.651925802231D-08  .870000000000D+02
     .792060000000D+05  .400000000000D+01
 5 15 11  2  0  0  0.0 -.178990885615D-03  .386535248253D-11  .000000000000D+00
     .460000000000D+02  .675000000000D+01  .516378652101D-08 -.244792112149D+01
     .141561031342D-06  .450399366673D-02  .730156898499D-05  .515366585922D+04
     .864000000000D+05  .372529029846D-08  .250758965273D+01 -.115483999252D-06
     .946469172903D+00  .233125000000D+03  .455209367880D+00 -.824248618978D-08
     .150006248362D-09  .100000000000D+01  .186900000000D+04  .000000000000D+00
     .240000000000D+01  .000000000000D+00 -.107102096081D-07  .460000000000D+02
     .792060000000D+05  .400000000000D+01
 6 15 11  2  0  0  0.0  .875834375620D-04  .682121026330D-11  .000000000000D+00
     .380000000000D+02 -.289375000000D+02  .434089510142D-08 -.303095928220D+01
    -.136159360409D-05  .210546073504D-03  .985711812973D-05  .515357337570D+04
     .864000000000D+05 -.149011611938D-07  .146709900551D+01  .558793544769D-08
     .962575067092D+00  .186218750000D+03  .275590718006D+01 -.791318675885D-08
     .382873091058D-09  .100000000000D+01  .186900000000D+04  .000000000000D+00
     .240000000000D+01  .000000000000D+00  .419095158577D-08  .380000000000D+02
     .792060000000D+05  .400000000000D+01
 7 15 11  2  0  0  0.0  .481461640447D-03 -.909494701773D-12  .000000000000D+00
     .500000000000D+02  .825312500000D+02  .434982404477D-08  .169239268192D+00
     .424124300480D-05  .901607377455D-02  .756792724133D-05  .515369688225D+04
     .864000000000D+05  .614672899246D-07 -.164788157949D+01  .819563865662D-07
     .968421698194D+00  .235218750000D+03 -.268586942696D+01 -.816962601200D-08
    -.939324840936D-10  .100000000000D+01  .186900000000D+04  .000000000000D+00
     .340000000000D+01  .000000000000D+00 -.111758708954D-07  .500000000000D+02
     .792060000000D+05  .400000000000D+01
 8 15 11  2  0  0  0.0 -.109104439616D-04 -.147792889038D-11  .000000000000D+00
     .230000000000D+02 -.740625000000D+02  .445804283824D-08 -.184515881082D+01
    -.383704900742D-05  .147587608080D-02  .724010169506D-05  .515359785080D+04
     .864000000000D+05  .372529029846D-07  .417031877109D+00  .260770320892D-07
     .961178929761D+00  .239062500000D+03 -.170090380764D+01 -.808962267954D-08
    -.467876631797D-10  .100000000000D+01  .186900000000D+04  .000000000000D+00
     .240000000000D+01  .000000000000D+00  .465661287308D-08  .230000000000D+02
     .792060000000D+05  .400000000000D+01
 9 15 11  2  0  0  0.0  .441679731011D-05  .500222085975D-11  .000000000000D+00
     .250000000000D+02  .186250000000D+02  .478519932276D-08  .258339610436D+01
     .101141631603D-05  .386028550565D-03  .868737697601D-05  .515370249748D+04
     .864000000000D+05  .968575477600D-07 -.272533535942D+01  .111758708954D-07
     .956654868767D+00  .210343750000D+03  .228851441829D+01 -.810569477758D-08
    -.307155651409D-09  .100000000000D+01  .186900000000D+04  .000000000000D+00
     .240000000000D+01  .000000000000D+00  .931322574615D-09  .250000000000D+02
     .792060000000D+05  .400000000000D+01
11 15 11  2  0  0  0.0 -.613718293607D-03 -.216004991671D-11  .000000000000D+00
     .180000000000D+02 -.439687500000D+02  .601096466652D-08  .263941327107D+00
    -.234879553318D-05  .163121001096D-01  .938586890697D-05  .515363634682D+04
     .864000000000D+05 -.301748514175D-06  .111326703709D+01 -.689178705215D-07
     .894336767596D+00  .166687500000D+03  .147452704667D+01 -.897965975316D-08
     .159292349451D-09  .100000000000D+01  .186900000000D+04  .000000000000D+00
     .240000000000D+01  .000000000000D+00 -.121071934700D-07  .180000000000D+02
     .792060000000D+05  .400000000000D+01
12 15 11  2  0  0  0.0  .341892242432D-03  .318323145621D-11  .000000000000D+00
     .790000000000D+02  .231250000000D+01  .408374153280D-08 -.271596123492D+00
     .633299350739D-07  .551660684869D-02  .423379242420D-05  .515358335876D+04
     .864000000000D+05 -.149011611938D-07 -.575800434959D+00  .894069671631D-07
     .990288095646D+00  .311906250000D+03  .642578427685D+00 -.813391023858D-08
    -.507163982558D-10  .100000000000D+01  .186900000000D+04  .000000000000D+00
     .340000000000D+01  .000000000000D+00 -.125728547573D-07  .790000000000D+02
     .792060000000D+05  .400000000000D+01
13 15 11  2  0  0  0.0 -.161172822118D-03 -.284217094304D-11  .000000000000D+00
     .590000000000D+02  .262187500000D+02  .438018245218D-08  .105833997257D+01
     .135228037834D-05  .465772126336D-02  .916980206966D-05  .515368567467D+04
     .864000000000D+05  .111758708954D-07 -.260781615698D+01 -.147148966789D-06
     .973182706566D+00  .208750000000D+03  .204594710259D+01 -.790068623815D-08
    -.289654922433D-09  .100000000000D+01  .186900000000D+04  .000000000000D+00
     .240000000000D+01  .000000000000D+00 -.111758708954D-07  .590000000000D+02
     .792060000000D+05  .400000000000D+01
14 15 11  2  0  0  0.0  .243769027293D-04 -.238742359215D-11  .000000000000D+00
     .850000000000D+02  .185312500000D+02  .443982779379D-08  .295789075051D+01
     .989064574242D-06  .840709544718D-02  .866875052452D-05  .515367904854D+04
     .864000000000D+05  .428408384323D-07 -.264348379967D+01 -.150874257088D-06
     .965689227621D+00  .211906250000D+03 -.195026375480D+01 -.783211195319D-08
    -.327870799992D-09  .100000000000D+01  .186900000000D+04  .000000000000D+00
     .240000000000D+01  .000000000000D+00 -.931322574615D-08  .850000000000D+02
     .792060000000D+05  .400000000000D+01
